{
  "type": "FeatureCollection",
  "features": [
    {
      "type": "Feature",
      "properties": {
        "norad_id": 35891,
        "name": "COSMOS 2251 DEB",
        "group": "cosmos-2251-debris",
        "lat": 49.67229964100153,
        "lon": 84.68112005577628,
        "alt_km": 479.43101979459243,
        "timestamp": "2025-12-26T05:31:12.903318+00:00",
        "meta_object_name": "COSMOS 2251 DEB",
        "meta_object_id": "1993-036AUE",
        "meta_epoch": "2025-12-24T11:02:21.554880",
        "meta_mean_motion": 15.34278656,
        "meta_eccentricity": 0.00414162,
        "meta_inclination": 73.9889,
        "meta_ra_of_asc_node": 68.7111,
        "meta_arg_of_pericenter": 197.0192,
        "meta_mean_anomaly": 162.9627,
        "meta_ephemeris_type": 0,
        "meta_classification_type": "U",
        "meta_norad_cat_id": 35891,
        "meta_element_set_no": 999,
        "meta_rev_at_epoch": 67400,
        "meta_bstar": 0.0013301522,
        "meta_mean_motion_dot": 0.00045622,
        "meta_mean_motion_ddot": 0,
        "tle_line1": "1 35891U 93036AUE 25358.45997170  .00045622  00000+0  13302-2 0  9991",
        "tle_line2": "2 35891  73.9889  68.7111 0041416 197.0192 162.9627 15.34278656674008"
      },
      "geometry": {
        "type": "Point",
        "coordinates": [
          84.68112005577628,
          49.67229964100153
        ]
      }
    },
    {
      "type": "Feature",
      "properties": {
        "norad_id": 35895,
        "name": "COSMOS 2251 DEB",
        "group": "cosmos-2251-debris",
        "lat": 63.97227211190872,
        "lon": 0.11553605575705338,
        "alt_km": 739.6970881223833,
        "timestamp": "2025-12-26T05:31:12.903328+00:00",
        "meta_object_name": "COSMOS 2251 DEB",
        "meta_object_id": "1993-036AUJ",
        "meta_epoch": "2025-12-22T15:33:07.695936",
        "meta_mean_motion": 14.01570651,
        "meta_eccentricity": 0.01984376,
        "meta_inclination": 74.0474,
        "meta_ra_of_asc_node": 330.4733,
        "meta_arg_of_pericenter": 66.0465,
        "meta_mean_anomaly": 296.1309,
        "meta_ephemeris_type": 0,
        "meta_classification_type": "U",
        "meta_norad_cat_id": 35895,
        "meta_element_set_no": 999,
        "meta_rev_at_epoch": 59151,
        "meta_bstar": 0.0014393062,
        "meta_mean_motion_dot": 2.565e-05,
        "meta_mean_motion_ddot": 0,
        "tle_line1": "1 35895U 93036AUJ 25356.64800574  .00002565  00000+0  14393-2 0  9995",
        "tle_line2": "2 35895  74.0474 330.4733 0198437  66.0465 296.1309 14.01570651591511"
      },
      "geometry": {
        "type": "Point",
        "coordinates": [
          0.11553605575705338,
          63.97227211190872
        ]
      }
    },
    {
      "type": "Feature",
      "properties": {
        "norad_id": 35898,
        "name": "COSMOS 2251 DEB",
        "group": "cosmos-2251-debris",
        "lat": 38.5313421721959,
        "lon": 76.9667345783398,
        "alt_km": 578.5076060218789,
        "timestamp": "2025-12-26T05:31:12.903337+00:00",
        "meta_object_name": "COSMOS 2251 DEB",
        "meta_object_id": "1993-036AUM",
        "meta_epoch": "2025-12-23T01:28:13.609632",
        "meta_mean_motion": 14.9486843,
        "meta_eccentricity": 0.00792798,
        "meta_inclination": 73.9918,
        "meta_ra_of_asc_node": 276.5869,
        "meta_arg_of_pericenter": 57.1802,
        "meta_mean_anomaly": 315.6135,
        "meta_ephemeris_type": 0,
        "meta_classification_type": "U",
        "meta_norad_cat_id": 35898,
        "meta_element_set_no": 999,
        "meta_rev_at_epoch": 66964,
        "meta_bstar": 0.00085758423,
        "meta_mean_motion_dot": 9.925e-05,
        "meta_mean_motion_ddot": 0,
        "tle_line1": "1 35898U 93036AUM 25357.06126863  .00009925  00000+0  85758-3 0  9998",
        "tle_line2": "2 35898  73.9918 276.5869 0079279  57.1802 315.6135 14.94868430669644"
      },
      "geometry": {
        "type": "Point",
        "coordinates": [
          76.9667345783398,
          38.5313421721959
        ]
      }
    },
    {
      "type": "Feature",
      "properties": {
        "norad_id": 35901,
        "name": "COSMOS 2251 DEB",
        "group": "cosmos-2251-debris",
        "lat": 42.343427789164174,
        "lon": 10.232850878921598,
        "alt_km": 536.8534681408173,
        "timestamp": "2025-12-26T05:31:12.903348+00:00",
        "meta_object_name": "COSMOS 2251 DEB",
        "meta_object_id": "1993-036AUQ",
        "meta_epoch": "2025-12-21T07:33:55.014048",
        "meta_mean_motion": 15.07789315,
        "meta_eccentricity": 0.0007598,
        "meta_inclination": 74.0113,
        "meta_ra_of_asc_node": 5.2093,
        "meta_arg_of_pericenter": 337.8636,
        "meta_mean_anomaly": 36.6976,
        "meta_ephemeris_type": 0,
        "meta_classification_type": "U",
        "meta_norad_cat_id": 35901,
        "meta_element_set_no": 999,
        "meta_rev_at_epoch": 86256,
        "meta_bstar": 0.0027352,
        "meta_mean_motion_dot": 0.00042089,
        "meta_mean_motion_ddot": 0,
        "tle_line1": "1 35901U 93036AUQ 25355.31522007  .00042089  00000+0  27352-2 0  9992",
        "tle_line2": "2 35901  74.0113   5.2093 0007598 337.8636  36.6976 15.07789315862560"
      },
      "geometry": {
        "type": "Point",
        "coordinates": [
          10.232850878921598,
          42.343427789164174
        ]
      }
    },
    {
      "type": "Feature",
      "properties": {
        "norad_id": 35902,
        "name": "COSMOS 2251 DEB",
        "group": "cosmos-2251-debris",
        "lat": 15.274810396205599,
        "lon": -145.40294783151765,
        "alt_km": 758.478349056204,
        "timestamp": "2025-12-26T05:31:12.903358+00:00",
        "meta_object_name": "COSMOS 2251 DEB",
        "meta_object_id": "1993-036AUR",
        "meta_epoch": "2025-12-22T20:41:03.846048",
        "meta_mean_motion": 14.26951694,
        "meta_eccentricity": 0.0102351,
        "meta_inclination": 73.9816,
        "meta_ra_of_asc_node": 216.2092,
        "meta_arg_of_pericenter": 329.0141,
        "meta_mean_anomaly": 30.4992,
        "meta_ephemeris_type": 0,
        "meta_classification_type": "U",
        "meta_norad_cat_id": 35902,
        "meta_element_set_no": 999,
        "meta_rev_at_epoch": 61274,
        "meta_bstar": 0.0010058,
        "meta_mean_motion_dot": 2.559e-05,
        "meta_mean_motion_ddot": 0,
        "tle_line1": "1 35902U 93036AUR 25356.86185007  .00002559  00000+0  10058-2 0  9992",
        "tle_line2": "2 35902  73.9816 216.2092 0102351 329.0141  30.4992 14.26951694612743"
      },
      "geometry": {
        "type": "Point",
        "coordinates": [
          -145.40294783151765,
          15.274810396205599
        ]
      }
    },
    {
      "type": "Feature",
      "properties": {
        "norad_id": 35905,
        "name": "COSMOS 2251 DEB",
        "group": "cosmos-2251-debris",
        "lat": -46.40745797302482,
        "lon": 20.931484275125836,
        "alt_km": 521.9296376733791,
        "timestamp": "2025-12-26T05:31:12.903367+00:00",
        "meta_object_name": "COSMOS 2251 DEB",
        "meta_object_id": "1993-036AUU",
        "meta_epoch": "2025-12-20T21:58:14.302848",
        "meta_mean_motion": 14.99122069,
        "meta_eccentricity": 0.00907118,
        "meta_inclination": 74.0303,
        "meta_ra_of_asc_node": 194.2135,
        "meta_arg_of_pericenter": 272.3815,
        "meta_mean_anomaly": 86.6988,
        "meta_ephemeris_type": 0,
        "meta_classification_type": "U",
        "meta_norad_cat_id": 35905,
        "meta_element_set_no": 999,
        "meta_rev_at_epoch": 88705,
        "meta_bstar": 0.00044734031,
        "meta_mean_motion_dot": 5.886e-05,
        "meta_mean_motion_ddot": 0,
        "tle_line1": "1 35905U 93036AUU 25354.91544332  .00005886  00000+0  44734-3 0  9994",
        "tle_line2": "2 35905  74.0303 194.2135 0090711 272.3815  86.6988 14.99122069887058"
      },
      "geometry": {
        "type": "Point",
        "coordinates": [
          20.931484275125836,
          -46.40745797302482
        ]
      }
    },
    {
      "type": "Feature",
      "properties": {
        "norad_id": 35959,
        "name": "COSMOS 2251 DEB",
        "group": "cosmos-2251-debris",
        "lat": 74.01255125797931,
        "lon": 15.200394022383096,
        "alt_km": 769.118968820082,
        "timestamp": "2025-12-26T05:31:12.903377+00:00",
        "meta_object_name": "COSMOS 2251 DEB",
        "meta_object_id": "1993-036AUZ",
        "meta_epoch": "2025-12-24T06:13:49.219680",
        "meta_mean_motion": 14.34143688,
        "meta_eccentricity": 0.00220445,
        "meta_inclination": 74.0332,
        "meta_ra_of_asc_node": 290.9748,
        "meta_arg_of_pericenter": 8.3325,
        "meta_mean_anomaly": 351.8188,
        "meta_ephemeris_type": 0,
        "meta_classification_type": "U",
        "meta_norad_cat_id": 35959,
        "meta_element_set_no": 999,
        "meta_rev_at_epoch": 85093,
        "meta_bstar": 0.00012200296,
        "meta_mean_motion_dot": 3.16e-06,
        "meta_mean_motion_ddot": 0,
        "tle_line1": "1 35959U 93036AUZ 25358.25959745  .00000316  00000+0  12200-3 0  9998",
        "tle_line2": "2 35959  74.0332 290.9748 0022044   8.3325 351.8188 14.34143688850935"
      },
      "geometry": {
        "type": "Point",
        "coordinates": [
          15.200394022383096,
          74.01255125797931
        ]
      }
    }
  ]
}